[Satellite]
VERSION=1.1
NAME=GORIZONT 29
NICKNAME=GORIZONT 29
TLE1=1 22907U 93072A   17185.79333709 -.00000043  00000-0  00000-0 0  9992
TLE2=2 22907  14.7573  15.3311 0013500 274.8882  92.7814  1.00166244 86448
